NORAD_CAT_ID,OBJECT_NAME,OBJECT_TYPE,EPOCH,MEAN_MOTION,ECCENTRICITY,INCLINATION,RA_OF_ASC_NODE,ARG_OF_PERICENTER,MEAN_ANOMALY,BSTAR,MEAN_MOTION_DOT,MEAN_MOTION_DDOT,TLE_LINE0,TLE_LINE1,TLE_LINE2,SEMIMAJOR_AXIS,PERIOD,APOGEE,PERIGEE,DECAYED
52601.0,STARLINK-4027,PAYLOAD,2022-10-14 11:12:09,15.08843974,0.0001792,53.2167,95.6672,42.4871,317.626,0.00011857,1.6e-05,0.0,0 STARLINK-4027,1 52601U 22052D   22287.46677177  .00001600  00000-0  11857-3 0  9993,2 52601  53.2167  95.6672 0001792  42.4871 317.6260 15.08843974 24123,6917.868,95.437,540.9730000000002,538.494,0.0
52601.0,STARLINK-4027,PAYLOAD,2022-10-14 17:33:41,15.08840317,0.000176,53.2163,94.4768,44.8073,315.3061,7.5775e-05,9.18e-06,0.0,0 STARLINK-4027,1 52601U 22052D   22287.73173409  .00000918  00000-0  75775-4 0  9993,2 52601  53.2163  94.4768 0001760  44.8073 315.3061 15.08840317 24163,6917.879,95.438,540.962,538.5269999999998,0.0
52601.0,STARLINK-4027,PAYLOAD,2022-10-15 12:38:19,15.08845922,0.0001757,53.2168,90.9082,42.2336,317.8792,0.00014701,2.053e-05,0.0,0 STARLINK-4027,1 52601U 22052D   22288.52661212  .00002053  00000-0  14701-3 0  9998,2 52601  53.2168  90.9082 0001757  42.2336 317.8792 15.08845922 24286,6917.861999999999,95.437,540.943,538.512,0.0
52601.0,STARLINK-4027,PAYLOAD,2022-10-15 17:24:28,15.08847747,0.0001735,53.2168,90.0165,40.9953,319.1169,0.00028941,4.322e-05,0.0,0 STARLINK-4027,1 52601U 22052D   22288.72533098  .00004322  00000-0  28941-3 0  9992,2 52601  53.2168  90.0165 0001735  40.9953 319.1169 15.08847747 24319,6917.857,95.437,540.922,538.521,0.0
52601.0,STARLINK-4027,PAYLOAD,2022-10-16 10:53:43,15.08830113,0.0001751,53.2175,86.7456,40.3679,319.7442,1.9761e-05,2.6e-07,0.0,0 STARLINK-4027,1 52601U 22052D   22289.45398005  .00000026  00000-0  19761-4 0  9998,2 52601  53.2175  86.7456 0001751  40.3679 319.7442 15.08830113 23991,6917.911,95.438,540.987,538.564,0.0
52601.0,STARLINK-4027,PAYLOAD,2022-10-16 17:15:16,15.08832632,0.0001810999999999,53.2175,85.5562,38.4011,321.7109,-1.6184e-05,-5.46e-06,0.0,0 STARLINK-4027,1 52601U 22052D   22289.71893955 -.00000546  00000-0 -16184-4 0  9996,2 52601  53.2175  85.5562 0001811  38.4011 321.7109 15.08832632 24465,6917.903,95.438,541.021,538.515,0.0
52601.0,STARLINK-4027,PAYLOAD,2022-10-17 10:44:30,15.08840551,0.0002836,53.2161,82.2873,31.9807,328.1357,4.5977e-05,4.43e-06,0.0,0 STARLINK-4027,1 52601U 22052D   22290.44757680  .00000443  00000-0  45977-4 0  9998,2 52601  53.2161  82.2873 0002836  31.9807 328.1357 15.08840551 24148,6917.879,95.438,541.706,537.7819999999998,0.0
52601.0,STARLINK-4027,PAYLOAD,2022-10-17 12:19:54,15.08831017,0.0001921999999999,53.2177,81.9882,41.0894,319.0242,-7.4042e-05,-1.466e-05,0.0,0 STARLINK-4027,1 52601U 22052D   22290.51382362 -.00001466  00000-0 -74042-4 0  9990,2 52601  53.2177  81.9882 0001922  41.0894 319.0242 15.08831017 24581,6917.908,95.438,541.102,538.443,0.0
52601.0,STARLINK-4027,PAYLOAD,2022-10-17 15:30:40,15.08832072,0.0001869,53.2176,81.3933,42.2601,317.8535,-6.252800000000001e-05,-1.283e-05,0.0,0 STARLINK-4027,1 52601U 22052D   22290.64630289 -.00001283  00000-0 -62528-4 0  9991,2 52601  53.2176  81.3933 0001869  42.2601 317.8535 15.08832072 24178,6917.905,95.438,541.063,538.477,0.0
52601.0,STARLINK-4027,PAYLOAD,2022-10-18 08:59:54,15.08831629,0.0002011,53.2178,78.1221,41.5927,318.5218,0.00013769,1.903e-05,0.0,0 STARLINK-4027,1 52601U 22052D   22291.37493977  .00001903  00000-0  13769-3 0  9992,2 52601  53.2178  78.1221 0002011  41.5927 318.5218 15.08831629 24282,6917.906,95.438,541.1619999999998,538.38,0.0
52601.0,STARLINK-4027,PAYLOAD,2022-10-18 16:56:51,15.08826297,0.0002035,53.2178,76.635,42.1205,317.9943,8.5015e-05,1.065e-05,0.0,0 STARLINK-4027,1 52601U 22052D   22291.70614811  .00001065  00000-0  85015-4 0  9994,2 52601  53.2178  76.6350 0002035  42.1205 317.9943 15.08826297 24339,6917.922,95.438,541.195,538.379,0.0
52601.0,STARLINK-4027,PAYLOAD,2022-10-19 12:01:28,15.08841879,0.0001921,53.218,73.0664,45.9872,314.1278,5.2377e-05,5.46e-06,0.0,0 STARLINK-4027,1 52601U 22052D   22292.50102223  .00000546  00000-0  52377-4 0  9990,2 52601  53.2180  73.0664 0001921  45.9872 314.1278 15.08841879 24451,6917.875,95.437,541.069,538.411,0.0
52601.0,STARLINK-4027,PAYLOAD,2022-10-20 03:55:19,15.08848456,0.0002133,53.2179,70.0937,42.3698,317.7459,0.00014855,2.077e-05,0.0,0 STARLINK-4027,1 52601U 22052D   22293.16341640  .00002077  00000-0  14855-3 0  9990,2 52601  53.2179  70.0937 0002133  42.3698 317.7459 15.08848456 24988,6917.855,95.437,541.195,538.244,0.0
52601.0,STARLINK-4027,PAYLOAD,2022-10-20 18:13:47,15.08837819,0.0002045999999999,53.2181,67.4175,39.4742,320.6399,0.00015643,2.202e-05,0.0,0 STARLINK-4027,1 52601U 22052D   22293.75958329  .00002202  00000-0  15643-3 0  9999,2 52601  53.2181  67.4175 0002046  39.4742 320.6399 15.08837819 25073,6917.887,95.438,541.1669999999998,538.337,0.0
52601.0,STARLINK-4027,PAYLOAD,2022-10-21 11:43:02,15.08835848,0.0002214,53.2181,64.1467,43.1016,317.0149,0.00017372,2.477e-05,0.0,0 STARLINK-4027,1 52601U 22052D   22294.48822466  .00002477  00000-0  17372-3 0  9997,2 52601  53.2181  64.1467 0002214  43.1016 317.0149 15.08835848 25189,6917.893,95.438,541.29,538.226,0.0
52601.0,STARLINK-4027,PAYLOAD,2022-10-21 14:53:45,15.08926816,0.0001875,53.2181,63.5517,25.8308,334.2778,-0.0011612999999999,-0.00018767,0.0,0 STARLINK-4027,1 52601U 22052D   22294.62066891 -.00018767  00000-0 -11613-2 0  9997,2 52601  53.2181  63.5517 0001875  25.8308 334.2778 15.08926816 24770,6917.615,95.432,540.7769999999998,538.183,0.0
52601.0,STARLINK-4027,PAYLOAD,2022-10-22 03:36:52,15.088505599999998,0.0002168,53.2181,61.1731,44.2924,315.8241,0.00013441,1.852e-05,0.0,0 STARLINK-4027,1 52601U 22052D   22295.15061187  .00001852  00000-0  13441-3 0  9996,2 52601  53.2181  61.1731 0002168  44.2924 315.8241 15.08850560 24858,6917.848000000001,95.437,541.2130000000002,538.2130000000002,0.0
52601.0,STARLINK-4027,PAYLOAD,2022-10-22 13:09:12,15.088344400000002,0.0001985,53.2182,59.38800000000001,44.1894,315.9257,-2.17e-05,-6.33e-06,0.0,0 STARLINK-4027,1 52601U 22052D   22295.54806464 -.00000633  00000-0 -21700-4 0  9990,2 52601  53.2182  59.3880 0001985  44.1894 315.9257 15.08834440 24918,6917.897,95.438,541.136,538.389,0.0
52601.0,STARLINK-4027,PAYLOAD,2022-10-22 17:55:22,15.0883297,0.0002092,53.2182,58.4963,43.1632,316.9523,-9.5917e-06,-4.41e-06,0.0,0 STARLINK-4027,1 52601U 22052D   22295.74678563 -.00000441  00000-0 -95917-5 0  9998,2 52601  53.2182  58.4963 0002092  43.1632 316.9523 15.08832970 25373,6917.901999999999,95.438,541.214,538.32,0.0
52601.0,STARLINK-4027,PAYLOAD,2022-10-23 03:27:40,15.08843825,0.0002084,53.2186,56.7126,41.6786,318.4364,0.00011175,1.491e-05,0.0,0 STARLINK-4027,1 52601U 22052D   22296.14421484  .00001491  00000-0  11175-3 0  9997,2 52601  53.2186  56.7126 0002084  41.6786 318.4364 15.08843825 25004,6917.869000000002,95.437,541.175,538.2919999999998,0.0
52601.0,STARLINK-4027,PAYLOAD,2022-10-23 11:24:35,15.08854197,0.0002133,53.2183,55.2255,42.6986,317.4172,0.00012809,1.752e-05,0.0,0 STARLINK-4027,1 52601U 22052D   22296.47540619  .00001752  00000-0  12809-3 0  9990,2 52601  53.2183  55.2255 0002133  42.6986 317.4172 15.08854197 25488,6917.837,95.437,541.178,538.226,0.0
52601.0,STARLINK-4027,PAYLOAD,2022-10-23 17:46:07,15.08855275,0.0002339,53.2186,54.0383,37.4561,322.6594,0.00010685,1.413e-05,0.0,0 STARLINK-4027,1 52601U 22052D   22296.74036539  .00001413  00000-0  10685-3 0  9995,2 52601  53.2186  54.0383 0002339  37.4561 322.6594 15.08855275 25528,6917.834,95.437,541.317,538.081,0.0
52601.0,STARLINK-4027,PAYLOAD,2022-10-24 03:18:26,15.08847872,0.0002251,53.2183,52.2537,40.018,320.0978,9.9993e-05,1.304e-05,0.0,0 STARLINK-4027,1 52601U 22052D   22297.13780555  .00001304  00000-0  99993-4 0  9992,2 52601  53.2183  52.2537 0002251  40.0180 320.0978 15.08847872 25157,6917.856,95.437,541.279,538.164,0.0
52601.0,STARLINK-4027,PAYLOAD,2022-10-24 09:39:59,15.08835127,0.0001774,53.2207,51.0643,21.4673,338.6393,1.4959e-05,-5e-07,0.0,0 STARLINK-4027,1 52601U 22052D   22297.40277414 -.00000050  00000-0  14959-4 0  9994,2 52601  53.2207  51.0643 0001774  21.4673 338.6393 15.08835127 25626,6917.895,95.438,540.988,538.533,0.0
52601.0,STARLINK-4027,PAYLOAD,2022-10-24 11:15:24,15.08819786,0.0002109,53.219,50.7664,31.7484,328.3635,-8.218e-05,-1.595e-05,0.0,0 STARLINK-4027,1 52601U 22052D   22297.46902808 -.00001595  00000-0 -82180-4 0  9999,2 52601  53.2190  50.7664 0002109  31.7484 328.3635 15.08819786 25205,6917.941999999999,95.439,541.266,538.3480000000002,0.0
52601.0,STARLINK-4027,PAYLOAD,2022-10-24 14:26:10,15.08816913,0.0002045999999999,53.2186,50.1708,38.1412,321.9725,-0.00013059,-2.365e-05,0.0,0 STARLINK-4027,1 52601U 22052D   22297.60151243 -.00002365  00000-0 -13059-3 0  9998,2 52601  53.2186  50.1708 0002046  38.1412 321.9725 15.08816913 25652,6917.951,95.439,541.231,538.401,0.0
52601.0,STARLINK-4027,PAYLOAD,2022-10-25 11:06:11,15.08827748,0.0002065,53.2188,46.3048,36.5132,323.6001,-0.00013436,-2.425e-05,0.0,0 STARLINK-4027,1 52601U 22052D   22298.46263573 -.00002425  00000-0 -13436-3 0  9999,2 52601  53.2188  46.3048 0002065  36.5132 323.6001 15.08827748 25788,6917.918000000002,95.438,541.211,538.354,0.0
52601.0,STARLINK-4027,PAYLOAD,2022-10-25 14:16:58,15.08828052,0.0002131999999999,53.2184,45.7109,40.1607,319.9543,-0.00013543,-2.442e-05,0.0,0 STARLINK-4027,1 52601U 22052D   22298.59511632 -.00002442  00000-0 -13543-3 0  9993,2 52601  53.2184  45.7109 0002132  40.1607 319.9543 15.08828052 25809,6917.917,95.438,541.257,538.307,0.0
52601.0,STARLINK-4027,PAYLOAD,2022-10-26 06:10:48,15.08840111,0.0001969,53.2188,42.7371,36.7348,323.3779,3.3016e-05,2.37e-06,0.0,0 STARLINK-4027,1 52601U 22052D   22299.25750595  .00000237  00000-0  33016-4 0  9996,2 52601  53.2188  42.7371 0001969  36.7348 323.3779 15.08840111 25474,6917.88,95.438,541.107,538.383,0.0
